GLOBALSTAR M063         
1 26081U 00008A   26027.63879218 -.00000034  00000+0  71004-3 0  9998
2 26081  51.9925 240.4434 0005338  33.4066   1.3323 11.86180755184212
GLOBALSTAR M062         
1 26082U 00008B   26027.72597022 -.00000074  00000+0  17443-3 0  9990
2 26082  51.9835 155.4711 0006704 223.9866 276.5136 12.43482238524556
GLOBALSTAR M060         
1 26083U 00008C   26027.75719653 -.00000096  00000+0 -49255-4 0  9992
2 26083  52.0013 147.1614 0003143 203.6789 322.8428 12.17672289179722
GLOBALSTAR M064         
1 26084U 00008D   26027.85686181 -.00000065  00000+0  25574-3 0  9995
2 26084  52.0061 336.0483 0001622 113.6517 246.4486 11.88539676193818
GLOBALSTAR M065         
1 31571U 07020A   26027.66894618 -.00000041  00000+0  34877-3 0  9998
2 31571  51.9882 263.0109 0010808  84.4741 293.5004 12.62019460861759
GLOBALSTAR M069         
1 31573U 07020C   26027.74433900 -.00000056  00000+0  33474-3 0  9990
2 31573  52.0040 289.6371 0001082 199.8866 176.3502 12.23467334861617
GLOBALSTAR M072         
1 31574U 07020D   26027.66263449 -.00000085  00000+0 -10015-4 0  9991
2 31574  51.9929 114.3609 0001415  72.7164  94.7533 11.91655179858220
GLOBALSTAR M071         
1 31576U 07020F   26027.76032968 -.00000047  00000+0  43205-3 0  9997
2 31576  52.0091 321.5390 0000455 153.6218 219.8030 12.18264907522310
